FLOCK 4G-30             
1 62679U 25009BY  26068.70871344  .00013147  00000+0  49475-3 0  9999
2 62679  97.3969 150.6012 0003795 342.4152  17.6955 15.27244548121341
STARLINK-36129          
1 66874U 25281AC  26068.15523885  .00035237  00000+0  12841-2 0  9995
2 66874  43.0031 346.5022 0001675 285.5594  74.5073 15.27575623 16098
